{"type": "FeatureCollection", "features": [ {"type": "Feature", "properties": {"norad_id": 34001, "name": "COSMOS 2251 DEB", "group": "cosmos-2251-debris", "lat": -35.22805789699016, "lon": 99.01577934567999, "alt_km": 783.3101287337904, "timestamp": "2025-12-20T11:30:28.769400+00:00", "meta": {"OBJECT_NAME": "COSMOS 2251 DEB", "OBJECT_ID": "1993-036GL", "EPOCH": "2025-12-20T04:31:09.686784", "MEAN_MOTION": 14.37106693, "ECCENTRICITY": 0.002029, "INCLINATION": 74.0388, "RA_OF_ASC_NODE": 267.8912, "ARG_OF_PERICENTER": 347.517, "MEAN_ANOMALY": 163.527, "EPHEMERIS_TYPE": 0, "CLASSIFICATION_TYPE": "U", "NORAD_CAT_ID": 34001, "ELEMENT_SET_NO": 999, "REV_AT_EPOCH": 88253, "BSTAR": 0.00013534, "MEAN_MOTION_DOT": 3.77e-06, "MEAN_MOTION_DDOT": 0}, "tle": {"line1": "1 34001U 93036GL  25354.18830656  .00000377  00000+0  13534-3 0  9990", "line2": "2 34001  74.0388 267.8912 0020290 347.5170 163.5270 14.37106693882535"}}, "geometry": {"type": "Point", "coordinates": [99.01577934567999, -35.22805789699016]}}, {"type": "Feature", "properties": {"norad_id": 34003, "name": "COSMOS 2251 DEB", "group": "cosmos-2251-debris", "lat": 66.94822383224941, "lon": -45.75534600458749, "alt_km": 811.6438179209672, "timestamp": "2025-12-20T11:30:28.769410+00:00", "meta": {"OBJECT_NAME": "COSMOS 2251 DEB", "OBJECT_ID": "1993-036GN", "EPOCH": "2025-12-18T21:00:51.472800", "MEAN_MOTION": 13.84184634, "ECCENTRICITY": 0.02748454, "INCLINATION": 74.0781, "RA_OF_ASC_NODE": 274.8157, "ARG_OF_PERICENTER": 25.4118, "MEAN_ANOMALY": 336.0231, "EPHEMERIS_TYPE": 0, "CLASSIFICATION_TYPE": "U", "NORAD_CAT_ID": 34003, "ELEMENT_SET_NO": 999, "REV_AT_EPOCH": 84510, "BSTAR": 0.0015140525, "MEAN_MOTION_DOT": 2.24e-05, "MEAN_MOTION_DDOT": 0}, "tle": {"line1": "1 34003U 93036GN  25352.87559575  .00002240  00000+0  15141-2 0  9990", "line2": "2 34003  74.0781 274.8157 0274845  25.4118 336.0231 13.84184634845102"}}, "geometry": {"type": "Point", "coordinates": [-45.75534600458749, 66.94822383224941]}}, {"type": "Feature", "properties": {"norad_id": 34004, "name": "COSMOS 2251 DEB", "group": "cosmos-2251-debris", "lat": 68.62554644387728, "lon": -14.398472390414241, "alt_km": 735.5309121848331, "timestamp": "2025-12-20T11:30:28.769420+00:00", "meta": {"OBJECT_NAME": "COSMOS 2251 DEB", "OBJECT_ID": "1993-036GP", "EPOCH": "2025-12-19T05:20:10.228704", "MEAN_MOTION": 14.49065638, "ECCENTRICITY": 0.0033435, "INCLINATION": 74.0356, "RA_OF_ASC_NODE": 300.9531, "ARG_OF_PERICENTER": 312.416, "MEAN_ANOMALY": 47.4172, "EPHEMERIS_TYPE": 0, "CLASSIFICATION_TYPE": "U", "NORAD_CAT_ID": 34004, "ELEMENT_SET_NO": 999, "REV_AT_EPOCH": 88124, "BSTAR": 0.00086157, "MEAN_MOTION_DOT": 3.268e-05, "MEAN_MOTION_DDOT": 0}, "tle": {"line1": "1 34004U 93036GP  25353.22234061  .00003268  00000+0  86157-3 0  9998", "line2": "2 34004  74.0356 300.9531 0033435 312.4160  47.4172 14.49065638881248"}}, "geometry": {"type": "Point", "coordinates": [-14.398472390414241, 68.62554644387728]}}, {"type": "Feature", "properties": {"norad_id": 34005, "name": "COSMOS 2251 DEB", "group": "cosmos-2251-debris", "lat": 67.63094958946898, "lon": -24.695800085245647, "alt_km": 763.5106450959393, "timestamp": "2025-12-20T11:30:28.769430+00:00", "meta": {"OBJECT_NAME": "COSMOS 2251 DEB", "OBJECT_ID": "1993-036GQ", "EPOCH": "2025-12-19T07:28:53.752800", "MEAN_MOTION": 14.4030881, "ECCENTRICITY": 0.0021069, "INCLINATION": 74.0437, "RA_OF_ASC_NODE": 201.5051, "ARG_OF_PERICENTER": 318.6209, "MEAN_ANOMALY": 214.5502, "EPHEMERIS_TYPE": 0, "CLASSIFICATION_TYPE": "U", "NORAD_CAT_ID": 34005, "ELEMENT_SET_NO": 999, "REV_AT_EPOCH": 88473, "BSTAR": 8.2213e-05, "MEAN_MOTION_DOT": 2.35e-06, "MEAN_MOTION_DDOT": 0}, "tle": {"line1": "1 34005U 93036GQ  25353.31173325  .00000235  00000+0  82213-4 0  9995", "line2": "2 34005  74.0437 201.5051 0021069 318.6209 214.5502 14.40308810884738"}}, "geometry": {"type": "Point", "coordinates": [-24.695800085245647, 67.63094958946898]}}, {"type": "Feature", "properties": {"norad_id": 34006, "name": "COSMOS 2251 DEB", "group": "cosmos-2251-debris", "lat": 73.55488601566334, "lon": -127.94645616545561, "alt_km": 567.2265209129864, "timestamp": "2025-12-20T11:30:28.769440+00:00", "meta": {"OBJECT_NAME": "COSMOS 2251 DEB", "OBJECT_ID": "1993-036GR", "EPOCH": "2025-12-18T03:40:23.640096", "MEAN_MOTION": 14.95111084, "ECCENTRICITY": 0.00113796, "INCLINATION": 74.0524, "RA_OF_ASC_NODE": 132.3805, "ARG_OF_PERICENTER": 71.3364, "MEAN_ANOMALY": 105.5146, "EPHEMERIS_TYPE": 0, "CLASSIFICATION_TYPE": "U", "NORAD_CAT_ID": 34006, "ELEMENT_SET_NO": 999, "REV_AT_EPOCH": 88749, "BSTAR": 0.0025744949, "MEAN_MOTION_DOT": 0.00028351, "MEAN_MOTION_DDOT": 0}, "tle": {"line1": "1 34006U 93036GR  25352.15305139  .00028351  00000+0  25745-2 0  9991", "line2": "2 34006  74.0524 132.3805 0011379  71.3364 105.5146 14.95111084887496"}}, "geometry": {"type": "Point", "coordinates": [-127.94645616545561, 73.55488601566334]}}, {"type": "Feature", "properties": {"norad_id": 34007, "name": "COSMOS 2251 DEB", "group": "cosmos-2251-debris", "lat": -73.98961010093925, "lon": -115.1207709516325, "alt_km": 714.8911599208941, "timestamp": "2025-12-20T11:30:28.769450+00:00", "meta": {"OBJECT_NAME": "COSMOS 2251 DEB", "OBJECT_ID": "1993-036GS", "EPOCH": "2025-12-20T00:26:37.784832", "MEAN_MOTION": 14.64832262, "ECCENTRICITY": 0.0044233, "INCLINATION": 74.0189, "RA_OF_ASC_NODE": 332.8838, "ARG_OF_PERICENTER": 105.4528, "MEAN_ANOMALY": 255.1532, "EPHEMERIS_TYPE": 0, "CLASSIFICATION_TYPE": "U", "NORAD_CAT_ID": 34007, "ELEMENT_SET_NO": 999, "REV_AT_EPOCH": 89186, "BSTAR": 0.00045562, "MEAN_MOTION_DOT": 2.437e-05, "MEAN_MOTION_DDOT": 0}, "tle": {"line1": "1 34007U 93036GS  25354.01849288  .00002437  00000+0  45562-3 0  9994", "line2": "2 34007  74.0189 332.8838 0044233 105.4528 255.1532 14.64832262891864"}}, "geometry": {"type": "Point", "coordinates": [-115.1207709516325, -73.98961010093925]}}, {"type": "Feature", "properties": {"norad_id": 34008, "name": "COSMOS 2251 DEB", "group": "cosmos-2251-debris", "lat": 6.517913649265889, "lon": 134.49876807700647, "alt_km": 795.8141078744866, "timestamp": "2025-12-20T11:30:28.769460+00:00", "meta": {"OBJECT_NAME": "COSMOS 2251 DEB", "OBJECT_ID": "1993-036GT", "EPOCH": "2025-12-20T04:04:34.264992", "MEAN_MOTION": 14.33150928, "ECCENTRICITY": 0.002455, "INCLINATION": 74.0345, "RA_OF_ASC_NODE": 316.9388, "ARG_OF_PERICENTER": 310.9445, "MEAN_ANOMALY": 65.3586, "EPHEMERIS_TYPE": 0, "CLASSIFICATION_TYPE": "U", "NORAD_CAT_ID": 34008, "ELEMENT_SET_NO": 999, "REV_AT_EPOCH": 88071, "BSTAR": 8.3402e-05, "MEAN_MOTION_DOT": 2.03e-06, "MEAN_MOTION_DDOT": 0}, "tle": {"line1": "1 34008U 93036GT  25354.16984103  .00000203  00000+0  83402-4 0  9992", "line2": "2 34008  74.0345 316.9388 0024550 310.9445  65.3586 14.33150928880713"}}, "geometry": {"type": "Point", "coordinates": [134.49876807700647, 6.517913649265889]}}, {"type": "Feature", "properties": {"norad_id": 34009, "name": "COSMOS 2251 DEB", "group": "cosmos-2251-debris", "lat": -30.124195776225612, "lon": 152.35217518721208, "alt_km": 805.7222402310454, "timestamp": "2025-12-20T11:30:28.769470+00:00", "meta": {"OBJECT_NAME": "COSMOS 2251 DEB", "OBJECT_ID": "1993-036GU", "EPOCH": "2025-12-20T00:47:32.512416", "MEAN_MOTION": 14.3322765, "ECCENTRICITY": 0.002678, "INCLINATION": 74.0374, "RA_OF_ASC_NODE": 323.6078, "ARG_OF_PERICENTER": 31.0756, "MEAN_ANOMALY": 37.5302, "EPHEMERIS_TYPE": 0, "CLASSIFICATION_TYPE": "U", "NORAD_CAT_ID": 34009, "ELEMENT_SET_NO": 999, "REV_AT_EPOCH": 88050, "BSTAR": 0.00010373, "MEAN_MOTION_DOT": 2.6e-06, "MEAN_MOTION_DDOT": 0}, "tle": {"line1": "1 34009U 93036GU  25354.03301519  .00000260  00000+0  10373-3 0  9992", "line2": "2 34009  74.0374 323.6078 0026780  31.0756  37.5302 14.33227650880501"}}, "geometry": {"type": "Point", "coordinates": [152.35217518721208, -30.124195776225612]}}, {"type": "Feature", "properties": {"norad_id": 34010, "name": "COSMOS 2251 DEB", "group": "cosmos-2251-debris", "lat": -37.49489891875898, "lon": -105.65268515109665, "alt_km": 512.6964724906484, "timestamp": "2025-12-20T11:30:28.769480+00:00", "meta": {"OBJECT_NAME": "COSMOS 2251 DEB", "OBJECT_ID": "1993-036GV", "EPOCH": "2025-12-20T03:46:54.180192", "MEAN_MOTION": 15.19866689, "ECCENTRICITY": 0.0004459, "INCLINATION": 73.9997, "RA_OF_ASC_NODE": 267.7407, "ARG_OF_PERICENTER": 60.5998, "MEAN_ANOMALY": 299.5644, "EPHEMERIS_TYPE": 0, "CLASSIFICATION_TYPE": "U", "NORAD_CAT_ID": 34010, "ELEMENT_SET_NO": 999, "REV_AT_EPOCH": 89398, "BSTAR": 0.0025252, "MEAN_MOTION_DOT": 0.00054585, "MEAN_MOTION_DDOT": 0}, "tle": {"line1": "1 34010U 93036GV  25354.15757153  .00054585  00000+0  25252-2 0  9996", "line2": "2 34010  73.9997 267.7407 0004459  60.5998 299.5644 15.19866689893981"}}, "geometry": {"type": "Point", "coordinates": [-105.65268515109665, -37.49489891875898]}}, {"type": "Feature", "properties": {"norad_id": 34011, "name": "COSMOS 2251 DEB", "group": "cosmos-2251-debris", "lat": 73.13370905779291, "lon": 64.7892778461609, "alt_km": 731.6097477419389, "timestamp": "2025-12-20T11:30:28.769489+00:00", "meta": {"OBJECT_NAME": "COSMOS 2251 DEB", "OBJECT_ID": "1993-036GW", "EPOCH": "2025-12-20T04:24:32.202720", "MEAN_MOTION": 14.41801726, "ECCENTRICITY": 0.0036025, "INCLINATION": 74.0145, "RA_OF_ASC_NODE": 316.3349, "ARG_OF_PERICENTER": 37.7444, "MEAN_ANOMALY": 322.6228, "EPHEMERIS_TYPE": 0, "CLASSIFICATION_TYPE": "U", "NORAD_CAT_ID": 34011, "ELEMENT_SET_NO": 999, "REV_AT_EPOCH": 88023, "BSTAR": 0.00051301, "MEAN_MOTION_DOT": 1.663e-05, "MEAN_MOTION_DDOT": 0}, "tle": {"line1": "1 34011U 93036GW  25354.18370605  .00001663  00000+0  51301-3 0  9997", "line2": "2 34011  74.0145 316.3349 0036025  37.7444 322.6228 14.41801726880236"}}, "geometry": {"type": "Point", "coordinates": [64.7892778461609, 73.13370905779291]}}]}